QIANFAN-97              
1 66039U 25233G   26008.47710349  .00000070  00000+0  85396-4 0  9991
2 66039  88.9934  59.3746 0013775 332.7877  27.2553 13.53876199 11627
QIANFAN-98              
1 66040U 25233H   26008.63522254  .00000154  00000+0  12985-3 0  9993
2 66040  88.9927  59.1951 0013284 323.1821  36.8435 13.82585465 11737
QIANFAN-99              
1 66041U 25233J   26008.57210451  .00000116  00000+0  14372-3 0  9990
2 66041  88.9935  59.3691 0013760 325.2932  34.7324 13.57810996 11630
QIANFAN-100             
1 66042U 25233K   26008.56307260  .00000016  00000+0  61306-5 0  9995
2 66042  88.9945  59.2791 0013304 326.6345  33.3970 13.57283725 11680
QIANFAN-101             
1 66043U 25233L   26008.59897736  .00000245  00000+0  95130-4 0  9996
2 66043  88.9934  58.9328 0012910 313.0402  46.9709 14.26692130 11879
QIANFAN-102             
1 66044U 25233M   26008.60706484  .00000124  00000+0  13374-3 0  9993
2 66044  88.9933  59.3199 0013499 326.0958  33.9338 13.66803840 11669
QIANFAN-103             
1 66045U 25233N   26008.65225712  .00000061  00000+0  71682-4 0  9996
2 66045  88.9936  59.3626 0012617 325.9693  34.0649 13.54137183 11645
QIANFAN-104             
1 66046U 25233P   26008.64156391  .00000124  00000+0  12365-3 0  9994
2 66046  88.9937  59.3087 0012901 329.6736  30.3679 13.71549277 11678
